COSMOS 2433 (720)       
1 32275U 07052A   24359.26859611 -.00000056  00000+0  00000+0 0  9994
2 32275  65.8590 334.0443 0005324 261.2959  98.6490  2.13104098133598
COSMOS 2432 (719)       
1 32276U 07052B   24358.63954146 -.00000056  00000+0  00000+0 0  9994
2 32276  65.8745 334.1827 0011795 314.9452 228.0316  2.13103285133572
COSMOS 2434 (721)       
1 32393U 07065A   24358.10686170  .00000073  00000+0  00000+0 0  9997
2 32393  64.3161 210.1804 0004785  72.3283   8.3028  2.13101439132245
COSMOS 2436 (723)       
1 32395U 07065C   24358.53084394  .00000079  00000+0  00000+0 0  9992
2 32395  64.3242 210.2324 0017567   9.0860 171.3984  2.13100221132212
COSMOS 2456 (730)       
1 36111U 09070A   24359.26550243 -.00000035  00000+0  00000+0 0  9995
2 36111  64.7053  89.4376 0003419 295.6944 108.5727  2.13103623116966
COSMOS 2457 (733)       
1 36112U 09070B   24359.46446365 -.00000036  00000+0  00000+0 0  9998
2 36112  64.6900  89.2852 0004898 165.3668 163.9216  2.13101068116961
COSMOS 2460 (732)       
1 36402U 10007C   24358.82213449 -.00000056  00000+0  00000+0 0  9998
2 36402  65.7118 332.6914 0002806 287.2972 263.6065  2.13106281115308
COSMOS 2476 (744)       
1 37867U 11064A   24359.39047115 -.00000033  00000+0  00000+0 0  9991
2 37867  64.9745  91.1387 0023844 234.5622 176.8732  2.13101555102316
COSMOS 2477 (745)       
1 37868U 11064B   24359.09423081 -.00000032  00000+0  00000+0 0  9998
2 37868  64.9812  91.2230 0020954 235.1634 128.0807  2.13102961102245
COSMOS 2475 (743)       
1 37869U 11064C   24357.84232667 -.00000024  00000+0  00000+0 0  9999
2 37869  64.9878  91.2821 0025680 249.8996 190.4747  2.13101601102233
COSMOS 2485 (747)       
1 39155U 13019A   24358.79544401 -.00000029  00000+0  00000+0 0  9993
2 39155  65.1303  91.7822 0024285 230.5836 129.2168  2.13104384 90767
COSMOS 2492 (754)       
1 39620U 14012A   24358.28170307 -.00000057  00000+0  00000+0 0  9999
2 39620  65.5925 332.2592 0014757 313.8633  46.0185  2.13103259 83710
COSMOS 2500 (755)       
1 40001U 14032A   24358.92783278 -.00000057  00000+0  00000+0 0  9994
2 40001  65.5289 332.0277 0007573 223.6204 136.3237  2.13106032 81942
COSMOS 2501 (702K)      
1 40315U 14075A   24358.24476509  .00000076  00000+0  00000+0 0  9990
2 40315  63.6163 209.1108 0019074 203.9102 156.0711  2.13101520 78325
COSMOS 2514 (751)       
1 41330U 16008A   24359.16625260 -.00000058  00000+0  00000+0 0  9999
2 41330  65.3220 331.4809 0011659 223.4604 136.4513  2.13102608 69115
COSMOS 2522 (752)       
1 42939U 17055A   24358.53667360  .00000078  00000+0  00000+0 0  9996
2 42939  64.0778 210.3001 0005830 227.9487 132.0736  2.13102016 56451
COSMOS 2527 (756)       
1 43508U 18053A   24358.49618447 -.00000027  00000+0  00000+0 0  9990
2 43508  65.2892  91.9839 0008953 226.8987 133.0419  2.13102279 50755
COSMOS 2529 (757)       
1 43687U 18086A   24358.12554253  .00000071  00000+0  00000+0 0  9996
2 43687  64.2935 210.8777 0006883 260.1086  99.8853  2.13102110 47755
COSMOS 2534 (758)       
1 44299U 19030A   24358.96923736  .00000084  00000+0  00000+0 0  9998
2 44299  64.3664 210.8203 0009120 288.7138 132.7708  2.13102263 43403
COSMOS 2544 (759)       
1 44850U 19088A   24358.44040230 -.00000027  00000+0  00000+0 0  9994
2 44850  65.2762  91.8190 0013783 251.3273 108.5389  2.13102105 39173
COSMOS 2545 (760)       
1 45358U 20018A   24358.63710458 -.00000059  00000+0  00000+0 0  9995
2 45358  64.6611 331.3550 0011564 253.2693 106.6073  2.13102616 37148
COSMOS 2547 (705K)      
1 46805U 20075A   24358.82351643  .00000083  00000+0  00000+0 0  9990
2 46805  64.5961 210.5231 0005789 232.0761 127.9446  2.13103028 32390
COSMOS 2557 (706K)      
1 52984U 22075A   24358.52041217 -.00000059  00000+0  00000+0 0  9991
2 52984  64.5929 333.4716 0013997 279.9081  79.9388  2.13101997 19183
COSMOS 2559 (707K)      
1 54031U 22130A   24358.46390802 -.00000059  00000+0  00000+0 0  9998
2 54031  64.5651 333.5847 0007726 235.9929 123.9388  2.13101380 17164
COSMOS 2564 (761)       
1 54377U 22161A   24358.65396389  .00000080  00000+0  00000+0 0  9995
2 54377  64.7374 210.6677 0007926 206.0281 154.0048  2.13102197 16118
COSMOS 2569 (703K)      
1 57517U 23114A   24359.13899286 -.00000033  00000+0  00000+0 0  9990
2 57517  65.0061  90.8768 0010533 289.1417  70.7605  2.13104187 10752
